[Satellite]
VERSION=1.1
NAME=RAPIDEYE 2
NICKNAME=RAPIDEYE 2
TLE1=1 33312U 08040A   15055.46888530  .00000764  00000-0  10809-3 0  9990
TLE2=2 33312  97.8760 144.2208 0011726 202.5212 157.5490 14.79885631350587
